{"type": "FeatureCollection", "features": [ {"type": "Feature", "properties": {"norad_id": 31430, "name": "FENGYUN 1C DEB", "group": "fengyun-1c-debris", "lat": -47.422707527395744, "lon": -140.6677861373541, "alt_km": 832.5654951476963, "timestamp": "2025-12-11T22:43:47.551429+00:00", "meta": {"OBJECT_NAME": "FENGYUN 1C DEB", "OBJECT_ID": "1999-025BTS", "EPOCH": "2025-12-11T15:38:30.869088", "MEAN_MOTION": 14.25596186, "ECCENTRICITY": 0.00269185, "INCLINATION": 98.7436, "RA_OF_ASC_NODE": 48.6801, "ARG_OF_PERICENTER": 45.6074, "MEAN_ANOMALY": 107.6578, "EPHEMERIS_TYPE": 0, "CLASSIFICATION_TYPE": "U", "NORAD_CAT_ID": 31430, "ELEMENT_SET_NO": 999, "REV_AT_EPOCH": 96102, "BSTAR": 0.0014563792, "MEAN_MOTION_DOT": 3.418e-05, "MEAN_MOTION_DDOT": 0}, "tle": {"line1": "1 31430U 99025BTS 25345.65174617  .00003418  00000+0  14564-2 0  9999", "line2": "2 31430  98.7436  48.6801 0026918  45.6074 107.6578 14.25596186961028"}}, "geometry": {"type": "Point", "coordinates": [-140.6677861373541, -47.422707527395744]}}, {"type": "Feature", "properties": {"norad_id": 31431, "name": "FENGYUN 1C DEB", "group": "fengyun-1c-debris", "lat": -5.391903876254471, "lon": 53.35745178017165, "alt_km": 881.7242835002698, "timestamp": "2025-12-11T22:43:47.551440+00:00", "meta": {"OBJECT_NAME": "FENGYUN 1C DEB", "OBJECT_ID": "1999-025BTT", "EPOCH": "2025-12-07T15:10:24.373056", "MEAN_MOTION": 14.03044754, "ECCENTRICITY": 0.01330657, "INCLINATION": 98.5386, "RA_OF_ASC_NODE": 230.1202, "ARG_OF_PERICENTER": 109.6865, "MEAN_ANOMALY": 251.8715, "EPHEMERIS_TYPE": 0, "CLASSIFICATION_TYPE": "U", "NORAD_CAT_ID": 31431, "ELEMENT_SET_NO": 999, "REV_AT_EPOCH": 94460, "BSTAR": 0.0022798155, "MEAN_MOTION_DOT": 3.793e-05, "MEAN_MOTION_DDOT": 0}, "tle": {"line1": "1 31431U 99025BTT 25341.63222654  .00003793  00000+0  22798-2 0  9993", "line2": "2 31431  98.5386 230.1202 0133065 109.6865 251.8715 14.03044754944600"}}, "geometry": {"type": "Point", "coordinates": [53.35745178017165, -5.391903876254471]}}, {"type": "Feature", "properties": {"norad_id": 31433, "name": "FENGYUN 1C DEB", "group": "fengyun-1c-debris", "lat": 46.801284081149504, "lon": -119.61508930036399, "alt_km": 733.6440203923084, "timestamp": "2025-12-11T22:43:47.551450+00:00", "meta": {"OBJECT_NAME": "FENGYUN 1C DEB", "OBJECT_ID": "1999-025BTV", "EPOCH": "2025-12-10T05:06:03.290112", "MEAN_MOTION": 14.25379283, "ECCENTRICITY": 0.0100275, "INCLINATION": 98.4097, "RA_OF_ASC_NODE": 247.7857, "ARG_OF_PERICENTER": 36.652, "MEAN_ANOMALY": 115.0039, "EPHEMERIS_TYPE": 0, "CLASSIFICATION_TYPE": "U", "NORAD_CAT_ID": 31433, "ELEMENT_SET_NO": 999, "REV_AT_EPOCH": 95516, "BSTAR": 0.0037305, "MEAN_MOTION_DOT": 9.24e-05, "MEAN_MOTION_DDOT": 0}, "tle": {"line1": "1 31433U 99025BTV 25344.21253808  .00009240  00000+0  37305-2 0  9990", "line2": "2 31433  98.4097 247.7857 0100275  36.6520 115.0039 14.25379283955169"}}, "geometry": {"type": "Point", "coordinates": [-119.61508930036399, 46.801284081149504]}}, {"type": "Feature", "properties": {"norad_id": 31435, "name": "FENGYUN 1C DEB", "group": "fengyun-1c-debris", "lat": 42.337785419012334, "lon": 149.37574186474495, "alt_km": 790.4217912962531, "timestamp": "2025-12-11T22:43:47.551460+00:00", "meta": {"OBJECT_NAME": "FENGYUN 1C DEB", "OBJECT_ID": "1999-025BTX", "EPOCH": "2025-12-11T10:57:41.552352", "MEAN_MOTION": 14.53432055, "ECCENTRICITY": 0.01489581, "INCLINATION": 99.0366, "RA_OF_ASC_NODE": 157.1845, "ARG_OF_PERICENTER": 183.8781, "MEAN_ANOMALY": 176.1271, "EPHEMERIS_TYPE": 0, "CLASSIFICATION_TYPE": "U", "NORAD_CAT_ID": 31435, "ELEMENT_SET_NO": 999, "REV_AT_EPOCH": 98354, "BSTAR": 0.00047095587, "MEAN_MOTION_DOT": 2.211e-05, "MEAN_MOTION_DDOT": 0}, "tle": {"line1": "1 31435U 99025BTX 25345.45673093  .00002211  00000+0  47096-3 0  9991", "line2": "2 31435  99.0366 157.1845 0148958 183.8781 176.1271 14.53432055983549"}}, "geometry": {"type": "Point", "coordinates": [149.37574186474495, 42.337785419012334]}}, {"type": "Feature", "properties": {"norad_id": 31436, "name": "FENGYUN 1C DEB", "group": "fengyun-1c-debris", "lat": -61.67889487457377, "lon": 1.9225653069141695, "alt_km": 563.6338696303856, "timestamp": "2025-12-11T22:43:47.551470+00:00", "meta": {"OBJECT_NAME": "FENGYUN 1C DEB", "OBJECT_ID": "1999-025BTY", "EPOCH": "2025-12-08T13:28:51.661920", "MEAN_MOTION": 14.93022785, "ECCENTRICITY": 0.0044316, "INCLINATION": 98.882, "RA_OF_ASC_NODE": 194.9716, "ARG_OF_PERICENTER": 256.2521, "MEAN_ANOMALY": 159.099, "EPHEMERIS_TYPE": 0, "CLASSIFICATION_TYPE": "U", "NORAD_CAT_ID": 31436, "ELEMENT_SET_NO": 999, "REV_AT_EPOCH": 96814, "BSTAR": 0.005826, "MEAN_MOTION_DOT": 0.00062201, "MEAN_MOTION_DDOT": 0}, "tle": {"line1": "1 31436U 99025BTY 25342.56170905  .00062201  00000+0  58260-2 0  9994", "line2": "2 31436  98.8820 194.9716 0044316 256.2521 159.0990 14.93022785968144"}}, "geometry": {"type": "Point", "coordinates": [1.9225653069141695, -61.67889487457377]}}, {"type": "Feature", "properties": {"norad_id": 31437, "name": "FENGYUN 1C DEB", "group": "fengyun-1c-debris", "lat": -80.32015345351536, "lon": -179.18222455203275, "alt_km": 747.1866974917684, "timestamp": "2025-12-11T22:43:47.551480+00:00", "meta": {"OBJECT_NAME": "FENGYUN 1C DEB", "OBJECT_ID": "1999-025BTZ", "EPOCH": "2025-12-09T16:13:35.437440", "MEAN_MOTION": 14.42435333, "ECCENTRICITY": 0.00152593, "INCLINATION": 98.8621, "RA_OF_ASC_NODE": 64.6212, "ARG_OF_PERICENTER": 256.234, "MEAN_ANOMALY": 103.715, "EPHEMERIS_TYPE": 0, "CLASSIFICATION_TYPE": "U", "NORAD_CAT_ID": 31437, "ELEMENT_SET_NO": 999, "REV_AT_EPOCH": 96466, "BSTAR": 0.0034638241, "MEAN_MOTION_DOT": 0.00011452, "MEAN_MOTION_DDOT": 0}, "tle": {"line1": "1 31437U 99025BTZ 25343.67610460  .00011452  00000+0  34638-2 0  9998", "line2": "2 31437  98.8621  64.6212 0015259 256.2340 103.7150 14.42435333964669"}}, "geometry": {"type": "Point", "coordinates": [-179.18222455203275, -80.32015345351536]}}, {"type": "Feature", "properties": {"norad_id": 31439, "name": "FENGYUN 1C DEB", "group": "fengyun-1c-debris", "lat": -7.306175551333381, "lon": 170.84260607232156, "alt_km": 820.4539415168256, "timestamp": "2025-12-11T22:43:47.551490+00:00", "meta": {"OBJECT_NAME": "FENGYUN 1C DEB", "OBJECT_ID": "1999-025BUB", "EPOCH": "2025-12-11T06:27:20.803392", "MEAN_MOTION": 13.95576352, "ECCENTRICITY": 0.01378211, "INCLINATION": 98.917, "RA_OF_ASC_NODE": 351.3398, "ARG_OF_PERICENTER": 165.839, "MEAN_ANOMALY": 215.9218, "EPHEMERIS_TYPE": 0, "CLASSIFICATION_TYPE": "U", "NORAD_CAT_ID": 31439, "ELEMENT_SET_NO": 999, "REV_AT_EPOCH": 63212, "BSTAR": 0.00082710454, "MEAN_MOTION_DOT": 1.176e-05, "MEAN_MOTION_DDOT": 0}, "tle": {"line1": "1 31439U 99025BUB 25345.26899078  .00001176  00000+0  82710-3 0  9998", "line2": "2 31439  98.9170 351.3398 0137821 165.8390 215.9218 13.95576352632120"}}, "geometry": {"type": "Point", "coordinates": [170.84260607232156, -7.306175551333381]}}, {"type": "Feature", "properties": {"norad_id": 31440, "name": "FENGYUN 1C DEB", "group": "fengyun-1c-debris", "lat": 10.127696142709356, "lon": 72.35736506280104, "alt_km": 747.3251946672626, "timestamp": "2025-12-11T22:43:47.551500+00:00", "meta": {"OBJECT_NAME": "FENGYUN 1C DEB", "OBJECT_ID": "1999-025BUC", "EPOCH": "2025-12-10T04:53:44.091456", "MEAN_MOTION": 14.36653105, "ECCENTRICITY": 0.00366239, "INCLINATION": 98.7454, "RA_OF_ASC_NODE": 72.1632, "ARG_OF_PERICENTER": 350.2386, "MEAN_ANOMALY": 9.8084, "EPHEMERIS_TYPE": 0, "CLASSIFICATION_TYPE": "U", "NORAD_CAT_ID": 31440, "ELEMENT_SET_NO": 999, "REV_AT_EPOCH": 96289, "BSTAR": 0.0026511584, "MEAN_MOTION_DOT": 7.827e-05, "MEAN_MOTION_DDOT": 0}, "tle": {"line1": "1 31440U 99025BUC 25344.20398254  .00007827  00000+0  26512-2 0  9999", "line2": "2 31440  98.7454  72.1632 0036623 350.2386   9.8084 14.36653105962896"}}, "geometry": {"type": "Point", "coordinates": [72.35736506280104, 10.127696142709356]}}, {"type": "Feature", "properties": {"norad_id": 31441, "name": "FENGYUN 1C DEB", "group": "fengyun-1c-debris", "lat": -72.05921698223112, "lon": -1.8096196902041133, "alt_km": 642.8295911947562, "timestamp": "2025-12-11T22:43:47.551510+00:00", "meta": {"OBJECT_NAME": "FENGYUN 1C DEB", "OBJECT_ID": "1999-025BUD", "EPOCH": "2025-12-07T08:28:41.429856", "MEAN_MOTION": 14.7453624, "ECCENTRICITY": 0.01049906, "INCLINATION": 99.3118, "RA_OF_ASC_NODE": 203.3613, "ARG_OF_PERICENTER": 352.0587, "MEAN_ANOMALY": 7.8951, "EPHEMERIS_TYPE": 0, "CLASSIFICATION_TYPE": "U", "NORAD_CAT_ID": 31441, "ELEMENT_SET_NO": 999, "REV_AT_EPOCH": 64011, "BSTAR": 0.0080507132, "MEAN_MOTION_DOT": 0.0005895, "MEAN_MOTION_DDOT": 0}, "tle": {"line1": "1 31441U 99025BUD 25341.35325729  .00058950  00000+0  80507-2 0  9997", "line2": "2 31441  99.3118 203.3613 0104990 352.0587   7.8951 14.74536240640115"}}, "geometry": {"type": "Point", "coordinates": [-1.8096196902041133, -72.05921698223112]}}, {"type": "Feature", "properties": {"norad_id": 31442, "name": "FENGYUN 1C DEB", "group": "fengyun-1c-debris", "lat": 7.458165051011076, "lon": 70.81014351885374, "alt_km": 724.3166917805947, "timestamp": "2025-12-11T22:43:47.551524+00:00", "meta": {"OBJECT_NAME": "FENGYUN 1C DEB", "OBJECT_ID": "1999-025BUE", "EPOCH": "2025-12-10T11:31:37.831008", "MEAN_MOTION": 14.3392245, "ECCENTRICITY": 0.00792158, "INCLINATION": 98.5305, "RA_OF_ASC_NODE": 70.4894, "ARG_OF_PERICENTER": 19.4196, "MEAN_ANOMALY": 340.9978, "EPHEMERIS_TYPE": 0, "CLASSIFICATION_TYPE": "U", "NORAD_CAT_ID": 31442, "ELEMENT_SET_NO": 999, "REV_AT_EPOCH": 97328, "BSTAR": 0.00052575283, "MEAN_MOTION_DOT": 1.474e-05, "MEAN_MOTION_DDOT": 0}, "tle": {"line1": "1 31442U 99025BUE 25344.48029897  .00001474  00000+0  52575-3 0  9996", "line2": "2 31442  98.5305  70.4894 0079215  19.4196 340.9978 14.33922450973284"}}, "geometry": {"type": "Point", "coordinates": [70.81014351885374, 7.458165051011076]}}]}